QIANFAN-1               
1 60379U 24140A   26061.90382449  .00000103  00000+0  14023-3 0  9996
2 60379  88.9722 290.9903 0017348 349.3940  10.6843 13.50999007 78178
QIANFAN-2               
1 60380U 24140B   26061.93255653  .00000101  00000+0  13768-3 0  9990
2 60380  88.9708 290.8154 0011828 322.8288  37.2043 13.51003114 78239
QIANFAN-3               
1 60381U 24140C   26061.94070978  .00000105  00000+0  14335-3 0  9992
2 60381  88.9700 290.9412 0013326 335.4299  24.6215 13.50999074 78146
QIANFAN-4               
1 60382U 24140D   26061.91612731  .00000128  00000+0  17990-3 0  9994
2 60382  88.9725 290.8616 0012126 325.5465  34.4899 13.50999435 78262
QIANFAN-5               
1 60383U 24140E   26061.89146976  .00000110  00000+0  15211-3 0  9990
2 60383  88.9700 290.9716 0014934 346.4287  13.6460 13.51001415 78122
QIANFAN-6               
1 60384U 24140F   26061.91204530  .00000115  00000+0  15999-3 0  9993
2 60384  88.9726 290.7372 0012406 331.7294  28.3182 13.51001201 78323
QIANFAN-7               
1 60385U 24140G   26061.92386234  .00000380  00000+0  14790-3 0  9999
2 60385  88.9738 284.3067 0016343 131.1740 229.0867 14.27770197 81830
QIANFAN-8               
1 60386U 24140H   26061.92026758  .00000123  00000+0  17212-3 0  9999
2 60386  88.9729 290.9751 0015911 332.4039  27.6266 13.51002735 78171
QIANFAN-9               
1 60387U 24140J   26061.89556368  .00000108  00000+0  14805-3 0  9999
2 60387  88.9726 291.0514 0015611 332.3244  27.7075 13.50997508 78159
QIANFAN-10              
1 60388U 24140K   26061.89955618  .00000114  00000+0  15814-3 0  9999
2 60388  88.9736 290.4058 0013445 308.8250  51.1700 13.50995931 78283
QIANFAN-11              
1 60389U 24140L   26061.93674579  .00000102  00000+0  13969-3 0  9995
2 60389  88.9662 290.9294 0013634 332.8006  27.2430 13.51002722 77949
QIANFAN-12              
1 60390U 24140M   26061.95731805  .00000116  00000+0  16042-3 0  9995
2 60390  88.9705 291.0056 0012720 341.8342  18.2353 13.51000407 78072
QIANFAN-13              
1 60391U 24140N   26061.92849005  .00000101  00000+0  13712-3 0  9990
2 60391  88.9718 291.1185 0012633 344.7971  15.2799 13.51000833 78090
QIANFAN-14              
1 60392U 24140P   26061.95310963  .00000122  00000+0  17023-3 0  9992
2 60392  88.9696 290.9963 0016290 342.7733  17.2863 13.51000689 78109
QIANFAN-15              
1 60393U 24140Q   26061.96147870  .00000108  00000+0  14836-3 0  9992
2 60393  88.9719 290.9710 0011676 330.6892  29.3603 13.50998559 78096
QIANFAN-16              
1 60394U 24140R   26061.94897329  .00000117  00000+0  16259-3 0  9993
2 60394  88.9723 291.0948 0014354 347.6836  12.3963 13.50997165 78003
QIANFAN-17              
1 60395U 24140S   26061.94497980  .00000106  00000+0  14635-3 0  9997
2 60395  88.9734 291.1500 0014550 341.0881  18.9728 13.51003915 78965
