[{"OBJECT_NAME":"QIANFAN-1","OBJECT_ID":"2024-140A","EPOCH":"2026-03-02T21:41:30.435936","MEAN_MOTION":13.50999007,"ECCENTRICITY":0.00173481,"INCLINATION":88.9722,"RA_OF_ASC_NODE":290.9903,"ARG_OF_PERICENTER":349.394,"MEAN_ANOMALY":10.6843,"EPHEMERIS_TYPE":0,"CLASSIFICATION_TYPE":"U","NORAD_CAT_ID":60379,"ELEMENT_SET_NO":999,"REV_AT_EPOCH":7817,"BSTAR":0.00014022664,"MEAN_MOTION_DOT":1.03e-6,"MEAN_MOTION_DDOT":0},{"OBJECT_NAME":"QIANFAN-2","OBJECT_ID":"2024-140B","EPOCH":"2026-03-02T22:22:52.884192","MEAN_MOTION":13.51003114,"ECCENTRICITY":0.00118284,"INCLINATION":88.9708,"RA_OF_ASC_NODE":290.8154,"ARG_OF_PERICENTER":322.8288,"MEAN_ANOMALY":37.2043,"EPHEMERIS_TYPE":0,"CLASSIFICATION_TYPE":"U","NORAD_CAT_ID":60380,"ELEMENT_SET_NO":999,"REV_AT_EPOCH":7823,"BSTAR":0.000137683,"MEAN_MOTION_DOT":1.01e-6,"MEAN_MOTION_DDOT":0},{"OBJECT_NAME":"QIANFAN-3","OBJECT_ID":"2024-140C","EPOCH":"2026-03-02T22:34:37.324992","MEAN_MOTION":13.50999074,"ECCENTRICITY":0.0013326,"INCLINATION":88.97,"RA_OF_ASC_NODE":290.9412,"ARG_OF_PERICENTER":335.4299,"MEAN_ANOMALY":24.6215,"EPHEMERIS_TYPE":0,"CLASSIFICATION_TYPE":"U","NORAD_CAT_ID":60381,"ELEMENT_SET_NO":999,"REV_AT_EPOCH":7814,"BSTAR":0.00014335479,"MEAN_MOTION_DOT":1.05e-6,"MEAN_MOTION_DDOT":0},{"OBJECT_NAME":"QIANFAN-4","OBJECT_ID":"2024-140D","EPOCH":"2026-03-02T21:59:13.399584","MEAN_MOTION":13.50999435,"ECCENTRICITY":0.00121264,"INCLINATION":88.9725,"RA_OF_ASC_NODE":290.8616,"ARG_OF_PERICENTER":325.5465,"MEAN_ANOMALY":34.4899,"EPHEMERIS_TYPE":0,"CLASSIFICATION_TYPE":"U","NORAD_CAT_ID":60382,"ELEMENT_SET_NO":999,"REV_AT_EPOCH":7826,"BSTAR":0.00017989958,"MEAN_MOTION_DOT":1.28e-6,"MEAN_MOTION_DDOT":0},{"OBJECT_NAME":"QIANFAN-5","OBJECT_ID":"2024-140E","EPOCH":"2026-03-02T21:23:42.987264","MEAN_MOTION":13.51001415,"ECCENTRICITY":0.00149341,"INCLINATION":88.97,"RA_OF_ASC_NODE":290.9716,"ARG_OF_PERICENTER":346.4287,"MEAN_ANOMALY":13.646,"EPHEMERIS_TYPE":0,"CLASSIFICATION_TYPE":"U","NORAD_CAT_ID":60383,"ELEMENT_SET_NO":999,"REV_AT_EPOCH":7812,"BSTAR":0.00015210981,"MEAN_MOTION_DOT":1.1e-6,"MEAN_MOTION_DDOT":0},{"OBJECT_NAME":"QIANFAN-6","OBJECT_ID":"2024-140F","EPOCH":"2026-03-02T21:53:20.713920","MEAN_MOTION":13.51001201,"ECCENTRICITY":0.00124065,"INCLINATION":88.9726,"RA_OF_ASC_NODE":290.7372,"ARG_OF_PERICENTER":331.7294,"MEAN_ANOMALY":28.3182,"EPHEMERIS_TYPE":0,"CLASSIFICATION_TYPE":"U","NORAD_CAT_ID":60384,"ELEMENT_SET_NO":999,"REV_AT_EPOCH":7832,"BSTAR":0.00015999246,"MEAN_MOTION_DOT":1.15e-6,"MEAN_MOTION_DDOT":0},{"OBJECT_NAME":"QIANFAN-7","OBJECT_ID":"2024-140G","EPOCH":"2026-03-02T22:10:21.706176","MEAN_MOTION":14.27770197,"ECCENTRICITY":0.00163431,"INCLINATION":88.9738,"RA_OF_ASC_NODE":284.3067,"ARG_OF_PERICENTER":131.174,"MEAN_ANOMALY":229.0867,"EPHEMERIS_TYPE":0,"CLASSIFICATION_TYPE":"U","NORAD_CAT_ID":60385,"ELEMENT_SET_NO":999,"REV_AT_EPOCH":8183,"BSTAR":0.00014790241,"MEAN_MOTION_DOT":3.8e-6,"MEAN_MOTION_DDOT":0},{"OBJECT_NAME":"QIANFAN-8","OBJECT_ID":"2024-140H","EPOCH":"2026-03-02T22:05:11.118912","MEAN_MOTION":13.51002735,"ECCENTRICITY":0.00159118,"INCLINATION":88.9729,"RA_OF_ASC_NODE":290.9751,"ARG_OF_PERICENTER":332.4039,"MEAN_ANOMALY":27.6266,"EPHEMERIS_TYPE":0,"CLASSIFICATION_TYPE":"U","NORAD_CAT_ID":60386,"ELEMENT_SET_NO":999,"REV_AT_EPOCH":7817,"BSTAR":0.00017211555,"MEAN_MOTION_DOT":1.23e-6,"MEAN_MOTION_DDOT":0},{"OBJECT_NAME":"QIANFAN-9","OBJECT_ID":"2024-140J","EPOCH":"2026-03-02T21:29:36.701952","MEAN_MOTION":13.50997508,"ECCENTRICITY":0.00156118,"INCLINATION":88.9726,"RA_OF_ASC_NODE":291.0514,"ARG_OF_PERICENTER":332.3244,"MEAN_ANOMALY":27.7075,"EPHEMERIS_TYPE":0,"CLASSIFICATION_TYPE":"U","NORAD_CAT_ID":60387,"ELEMENT_SET_NO":999,"REV_AT_EPOCH":7815,"BSTAR":0.00014804594,"MEAN_MOTION_DOT":1.08e-6,"MEAN_MOTION_DDOT":0},{"OBJECT_NAME":"QIANFAN-10","OBJECT_ID":"2024-140K","EPOCH":"2026-03-02T21:35:21.653952","MEAN_MOTION":13.50995931,"ECCENTRICITY":0.00134452,"INCLINATION":88.9736,"RA_OF_ASC_NODE":290.4058,"ARG_OF_PERICENTER":308.825,"MEAN_ANOMALY":51.17,"EPHEMERIS_TYPE":0,"CLASSIFICATION_TYPE":"U","NORAD_CAT_ID":60388,"ELEMENT_SET_NO":999,"REV_AT_EPOCH":7828,"BSTAR":0.00015814328,"MEAN_MOTION_DOT":1.14e-6,"MEAN_MOTION_DDOT":0},{"OBJECT_NAME":"QIANFAN-11","OBJECT_ID":"2024-140L","EPOCH":"2026-03-02T22:28:54.836256","MEAN_MOTION":13.51002722,"ECCENTRICITY":0.00136341,"INCLINATION":88.9662,"RA_OF_ASC_NODE":290.9294,"ARG_OF_PERICENTER":332.8006,"MEAN_ANOMALY":27.243,"EPHEMERIS_TYPE":0,"CLASSIFICATION_TYPE":"U","NORAD_CAT_ID":60389,"ELEMENT_SET_NO":999,"REV_AT_EPOCH":7794,"BSTAR":0.00013969425,"MEAN_MOTION_DOT":1.02e-6,"MEAN_MOTION_DDOT":0},{"OBJECT_NAME":"QIANFAN-12","OBJECT_ID":"2024-140M","EPOCH":"2026-03-02T22:58:32.279520","MEAN_MOTION":13.51000407,"ECCENTRICITY":0.00127202,"INCLINATION":88.9705,"RA_OF_ASC_NODE":291.0056,"ARG_OF_PERICENTER":341.8342,"MEAN_ANOMALY":18.2353,"EPHEMERIS_TYPE":0,"CLASSIFICATION_TYPE":"U","NORAD_CAT_ID":60390,"ELEMENT_SET_NO":999,"REV_AT_EPOCH":7807,"BSTAR":0.000160423,"MEAN_MOTION_DOT":1.16e-6,"MEAN_MOTION_DDOT":0},{"OBJECT_NAME":"QIANFAN-13","OBJECT_ID":"2024-140N","EPOCH":"2026-03-02T22:17:01.540320","MEAN_MOTION":13.51000833,"ECCENTRICITY":0.00126333,"INCLINATION":88.9718,"RA_OF_ASC_NODE":291.1185,"ARG_OF_PERICENTER":344.7971,"MEAN_ANOMALY":15.2799,"EPHEMERIS_TYPE":0,"CLASSIFICATION_TYPE":"U","NORAD_CAT_ID":60391,"ELEMENT_SET_NO":999,"REV_AT_EPOCH":7809,"BSTAR":0.00013712023,"MEAN_MOTION_DOT":1.01e-6,"MEAN_MOTION_DDOT":0},{"OBJECT_NAME":"QIANFAN-14","OBJECT_ID":"2024-140P","EPOCH":"2026-03-02T22:52:28.672032","MEAN_MOTION":13.51000689,"ECCENTRICITY":0.00162901,"INCLINATION":88.9696,"RA_OF_ASC_NODE":290.9963,"ARG_OF_PERICENTER":342.7733,"MEAN_ANOMALY":17.2863,"EPHEMERIS_TYPE":0,"CLASSIFICATION_TYPE":"U","NORAD_CAT_ID":60392,"ELEMENT_SET_NO":999,"REV_AT_EPOCH":7810,"BSTAR":0.00017023033,"MEAN_MOTION_DOT":1.22e-6,"MEAN_MOTION_DDOT":0},{"OBJECT_NAME":"QIANFAN-15","OBJECT_ID":"2024-140Q","EPOCH":"2026-03-02T23:04:31.759680","MEAN_MOTION":13.50998559,"ECCENTRICITY":0.00116761,"INCLINATION":88.9719,"RA_OF_ASC_NODE":290.971,"ARG_OF_PERICENTER":330.6892,"MEAN_ANOMALY":29.3603,"EPHEMERIS_TYPE":0,"CLASSIFICATION_TYPE":"U","NORAD_CAT_ID":60393,"ELEMENT_SET_NO":999,"REV_AT_EPOCH":7809,"BSTAR":0.00014835921,"MEAN_MOTION_DOT":1.08e-6,"MEAN_MOTION_DDOT":0},{"OBJECT_NAME":"QIANFAN-16","OBJECT_ID":"2024-140R","EPOCH":"2026-03-02T22:46:31.292256","MEAN_MOTION":13.50997165,"ECCENTRICITY":0.00143546,"INCLINATION":88.9723,"RA_OF_ASC_NODE":291.0948,"ARG_OF_PERICENTER":347.6836,"MEAN_ANOMALY":12.3963,"EPHEMERIS_TYPE":0,"CLASSIFICATION_TYPE":"U","NORAD_CAT_ID":60394,"ELEMENT_SET_NO":999,"REV_AT_EPOCH":7800,"BSTAR":0.00016258639,"MEAN_MOTION_DOT":1.17e-6,"MEAN_MOTION_DDOT":0},{"OBJECT_NAME":"QIANFAN-17","OBJECT_ID":"2024-140S","EPOCH":"2026-03-02T22:40:46.254720","MEAN_MOTION":13.51003915,"ECCENTRICITY":0.001455,"INCLINATION":88.9734,"RA_OF_ASC_NODE":291.15,"ARG_OF_PERICENTER":341.0881,"MEAN_ANOMALY":18.9728,"EPHEMERIS_TYPE":0,"CLASSIFICATION_TYPE":"U","NORAD_CAT_ID":60395,"ELEMENT_SET_NO":999,"REV_AT_EPOCH":7896,"BSTAR":0.00014634562,"MEAN_MOTION_DOT":1.06e-6,"MEAN_MOTION_DDOT":0}]
